[{"OBJECT_NAME":"CROCUBE","OBJECT_ID":"2024-247T","EPOCH":"2026-04-26T11:45:27.655488","MEAN_MOTION":15.44701641,"ECCENTRICITY":0.00051985,"INCLINATION":44.9717,"RA_OF_ASC_NODE":190.078,"ARG_OF_PERICENTER":355.2969,"MEAN_ANOMALY":4.787,"EPHEMERIS_TYPE":0,"CLASSIFICATION_TYPE":"U","NORAD_CAT_ID":62394,"ELEMENT_SET_NO":999,"REV_AT_EPOCH":7534,"BSTAR":0.00082582061,"MEAN_MOTION_DOT":0.00039267,"MEAN_MOTION_DDOT":0},{"OBJECT_NAME":"FORESAIL-1 PRIME","OBJECT_ID":"2025-276DS","EPOCH":"2026-04-26T19:02:32.517024","MEAN_MOTION":15.18218175,"ECCENTRICITY":8.44e-5,"INCLINATION":97.4217,"RA_OF_ASC_NODE":191.0191,"ARG_OF_PERICENTER":304.9592,"MEAN_ANOMALY":55.1563,"EPHEMERIS_TYPE":0,"CLASSIFICATION_TYPE":"U","NORAD_CAT_ID":66778,"ELEMENT_SET_NO":999,"REV_AT_EPOCH":2260,"BSTAR":0.00025844,"MEAN_MOTION_DOT":5.221e-5,"MEAN_MOTION_DDOT":0},{"OBJECT_NAME":"KNACKSAT-2","OBJECT_ID":"1998-067XZ","EPOCH":"2026-04-26T06:09:00.396576","MEAN_MOTION":15.5563873,"ECCENTRICITY":0.00123624,"INCLINATION":51.6294,"RA_OF_ASC_NODE":194.7914,"ARG_OF_PERICENTER":5.5713,"MEAN_ANOMALY":354.5413,"EPHEMERIS_TYPE":0,"CLASSIFICATION_TYPE":"U","NORAD_CAT_ID":67683,"ELEMENT_SET_NO":999,"REV_AT_EPOCH":1218,"BSTAR":0.00063921905,"MEAN_MOTION_DOT":0.00044626,"MEAN_MOTION_DDOT":0}]
