CROCUBE                 
1 62394U 24247T   26116.48990342  .00039267  00000+0  82582-3 0  9992
2 62394  44.9717 190.0780 0005198 355.2969   4.7870 15.44701641 75343
FORESAIL-1 PRIME        
1 66778U 25276DS  26116.79343191  .00005221  00000+0  25844-3 0  9994
2 66778  97.4217 191.0191 0000844 304.9592  55.1563 15.18218175 22600
KNACKSAT-2              
1 67683U 98067XZ  26116.25625459  .00044626  00000+0  63922-3 0  9990
2 67683  51.6294 194.7914 0012362   5.5713 354.5413 15.55638730 12189
